[{"OBJECT_NAME":"SKYKRAFT-1A","OBJECT_ID":"2023-001AX","EPOCH":"2026-03-09T17:03:19.828224","MEAN_MOTION":15.28083228,"ECCENTRICITY":0.00112767,"INCLINATION":97.3349,"RA_OF_ASC_NODE":127.629,"ARG_OF_PERICENTER":121.5092,"MEAN_ANOMALY":238.7251,"EPHEMERIS_TYPE":0,"CLASSIFICATION_TYPE":"U","NORAD_CAT_ID":55054,"ELEMENT_SET_NO":999,"REV_AT_EPOCH":17652,"BSTAR":0.0003006872,"MEAN_MOTION_DOT":8.177e-5,"MEAN_MOTION_DDOT":0},{"OBJECT_NAME":"STARLINK-32770","OBJECT_ID":"2025-014G","EPOCH":"2026-03-09T06:10:02.626176","MEAN_MOTION":15.27588135,"ECCENTRICITY":4.079e-5,"INCLINATION":42.9954,"RA_OF_ASC_NODE":156.6242,"ARG_OF_PERICENTER":256.5,"MEAN_ANOMALY":103.5806,"EPHEMERIS_TYPE":0,"CLASSIFICATION_TYPE":"U","NORAD_CAT_ID":62741,"ELEMENT_SET_NO":999,"REV_AT_EPOCH":6319,"BSTAR":0.0012357319,"MEAN_MOTION_DOT":0.00033908,"MEAN_MOTION_DDOT":0}]
